{"type": "FeatureCollection", "features": [ {"type": "Feature", "properties": {"norad_id": 17070, "name": "POLAR BEAR", "group": "nnss", "lat": -68.76992327732535, "lon": 4.422647311394786, "alt_km": 1015.3801217707514, "timestamp": "2025-12-21T03:56:51.105593+00:00", "meta": {"OBJECT_NAME": "POLAR BEAR", "OBJECT_ID": "1986-088A", "EPOCH": "2025-12-20T19:48:49.931424", "MEAN_MOTION": 13.75252378, "ECCENTRICITY": 0.004128, "INCLINATION": 89.6171, "RA_OF_ASC_NODE": 183.45, "ARG_OF_PERICENTER": 95.9604, "MEAN_ANOMALY": 275.7047, "EPHEMERIS_TYPE": 0, "CLASSIFICATION_TYPE": "U", "NORAD_CAT_ID": 17070, "ELEMENT_SET_NO": 999, "REV_AT_EPOCH": 96090, "BSTAR": 8.5364e-05, "MEAN_MOTION_DOT": 9.4e-07, "MEAN_MOTION_DDOT": 0}, "tle": {"line1": "1 17070U 86088A   25354.82557791  .00000094  00000+0  85364-4 0  9990", "line2": "2 17070  89.6171 183.4500 0041280  95.9604 275.7047 13.75252378960907"}}, "geometry": {"type": "Point", "coordinates": [4.422647311394786, -68.76992327732535]}}, {"type": "Feature", "properties": {"norad_id": 18361, "name": "OSCAR 27", "group": "nnss", "lat": -52.0085464461979, "lon": 80.06663739186219, "alt_km": 1121.9745875477602, "timestamp": "2025-12-21T03:56:51.105602+00:00", "meta": {"OBJECT_NAME": "OSCAR 27", "OBJECT_ID": "1987-080A", "EPOCH": "2025-12-20T19:16:52.982400", "MEAN_MOTION": 13.44908235, "ECCENTRICITY": 0.0103571, "INCLINATION": 90.374, "RA_OF_ASC_NODE": 79.574, "ARG_OF_PERICENTER": 200.5384, "MEAN_ANOMALY": 159.1587, "EPHEMERIS_TYPE": 0, "CLASSIFICATION_TYPE": "U", "NORAD_CAT_ID": 18361, "ELEMENT_SET_NO": 999, "REV_AT_EPOCH": 87665, "BSTAR": 0.00014449, "MEAN_MOTION_DOT": 9.6e-07, "MEAN_MOTION_DDOT": 0}, "tle": {"line1": "1 18361U 87080A   25354.80339100  .00000096  00000+0  14449-3 0  9994", "line2": "2 18361  90.3740  79.5740 0103571 200.5384 159.1587 13.44908235876652"}}, "geometry": {"type": "Point", "coordinates": [80.06663739186219, -52.0085464461979]}}, {"type": "Feature", "properties": {"norad_id": 18362, "name": "OSCAR 29", "group": "nnss", "lat": -53.63515853633273, "lon": 80.55669128118846, "alt_km": 1090.4278566861203, "timestamp": "2025-12-21T03:56:51.105612+00:00", "meta": {"OBJECT_NAME": "OSCAR 29", "OBJECT_ID": "1987-080B", "EPOCH": "2025-12-20T19:54:26.092224", "MEAN_MOTION": 13.44449737, "ECCENTRICITY": 0.0104417, "INCLINATION": 90.3751, "RA_OF_ASC_NODE": 80.0344, "ARG_OF_PERICENTER": 223.7095, "MEAN_ANOMALY": 261.0349, "EPHEMERIS_TYPE": 0, "CLASSIFICATION_TYPE": "U", "NORAD_CAT_ID": 18362, "ELEMENT_SET_NO": 999, "REV_AT_EPOCH": 87618, "BSTAR": 0.00012544, "MEAN_MOTION_DOT": 8.3e-07, "MEAN_MOTION_DDOT": 0}, "tle": {"line1": "1 18362U 87080B   25354.82946866  .00000083  00000+0  12544-3 0  9990", "line2": "2 18362  90.3751  80.0344 0104417 223.7095 261.0349 13.44449737876182"}}, "geometry": {"type": "Point", "coordinates": [80.55669128118846, -53.63515853633273]}}, {"type": "Feature", "properties": {"norad_id": 19070, "name": "OSCAR 23", "group": "nnss", "lat": -62.69424912576916, "lon": 17.274645467170206, "alt_km": 1272.3721664938457, "timestamp": "2025-12-21T03:56:51.105622+00:00", "meta": {"OBJECT_NAME": "OSCAR 23", "OBJECT_ID": "1988-033A", "EPOCH": "2025-12-20T14:23:51.321984", "MEAN_MOTION": 13.27788452, "ECCENTRICITY": 0.0190178, "INCLINATION": 90.3204, "RA_OF_ASC_NODE": 16.6361, "ARG_OF_PERICENTER": 158.1011, "MEAN_ANOMALY": 320.7202, "EPHEMERIS_TYPE": 0, "CLASSIFICATION_TYPE": "U", "NORAD_CAT_ID": 19070, "ELEMENT_SET_NO": 999, "REV_AT_EPOCH": 82357, "BSTAR": 0.00014595, "MEAN_MOTION_DOT": 8.2e-07, "MEAN_MOTION_DDOT": 0}, "tle": {"line1": "1 19070U 88033A   25354.59989956  .00000082  00000+0  14595-3 0  9994", "line2": "2 19070  90.3204  16.6361 0190178 158.1011 320.7202 13.27788452823571"}}, "geometry": {"type": "Point", "coordinates": [17.274645467170206, -62.69424912576916]}}, {"type": "Feature", "properties": {"norad_id": 19071, "name": "OSCAR 32", "group": "nnss", "lat": 49.103656277238436, "lon": 16.415207567457667, "alt_km": 1158.0065789835526, "timestamp": "2025-12-21T03:56:51.105631+00:00", "meta": {"OBJECT_NAME": "OSCAR 32", "OBJECT_ID": "1988-033B", "EPOCH": "2025-12-20T19:30:47.672064", "MEAN_MOTION": 13.27955183, "ECCENTRICITY": 0.0188979, "INCLINATION": 90.321, "RA_OF_ASC_NODE": 16.7751, "ARG_OF_PERICENTER": 144.421, "MEAN_ANOMALY": 27.8391, "EPHEMERIS_TYPE": 0, "CLASSIFICATION_TYPE": "U", "NORAD_CAT_ID": 19071, "ELEMENT_SET_NO": 999, "REV_AT_EPOCH": 82372, "BSTAR": 0.00012053, "MEAN_MOTION_DOT": 7e-07, "MEAN_MOTION_DDOT": 0}, "tle": {"line1": "1 19071U 88033B   25354.81305176  .00000070  00000+0  12053-3 0  9990", "line2": "2 19071  90.3210  16.7751 0188979 144.4210  27.8391 13.27955183823726"}}, "geometry": {"type": "Point", "coordinates": [16.415207567457667, 49.103656277238436]}}, {"type": "Feature", "properties": {"norad_id": 19223, "name": "NOVA 2", "group": "nnss", "lat": 83.07252032782786, "lon": -101.84585344130439, "alt_km": 1171.2633915095794, "timestamp": "2025-12-21T03:56:51.105641+00:00", "meta": {"OBJECT_NAME": "NOVA 2", "OBJECT_ID": "1988-052A", "EPOCH": "2025-12-20T18:57:20.777184", "MEAN_MOTION": 13.22936663, "ECCENTRICITY": 0.002991, "INCLINATION": 89.9869, "RA_OF_ASC_NODE": 78.2625, "ARG_OF_PERICENTER": 354.678, "MEAN_ANOMALY": 118.6074, "EPHEMERIS_TYPE": 0, "CLASSIFICATION_TYPE": "U", "NORAD_CAT_ID": 19223, "ELEMENT_SET_NO": 999, "REV_AT_EPOCH": 81054, "BSTAR": 8.9464e-05, "MEAN_MOTION_DOT": 4.6e-07, "MEAN_MOTION_DDOT": 0}, "tle": {"line1": "1 19223U 88052A   25354.78982381  .00000046  00000+0  89464-4 0  9999", "line2": "2 19223  89.9869  78.2625 0029910 354.6780 118.6074 13.22936663810548"}}, "geometry": {"type": "Point", "coordinates": [-101.84585344130439, 83.07252032782786]}}, {"type": "Feature", "properties": {"norad_id": 19419, "name": "OSCAR 25", "group": "nnss", "lat": 48.857479358127314, "lon": 20.23288754304536, "alt_km": 1165.5070281030576, "timestamp": "2025-12-21T03:56:51.105651+00:00", "meta": {"OBJECT_NAME": "OSCAR 25", "OBJECT_ID": "1988-074A", "EPOCH": "2025-12-20T15:45:58.695840", "MEAN_MOTION": 13.42624735, "ECCENTRICITY": 0.0094878, "INCLINATION": 90.0339, "RA_OF_ASC_NODE": 20.27, "ARG_OF_PERICENTER": 222.9127, "MEAN_ANOMALY": 254.383, "EPHEMERIS_TYPE": 0, "CLASSIFICATION_TYPE": "U", "NORAD_CAT_ID": 19419, "ELEMENT_SET_NO": 999, "REV_AT_EPOCH": 82746, "BSTAR": 0.00012942, "MEAN_MOTION_DOT": 8.4e-07, "MEAN_MOTION_DDOT": 0}, "tle": {"line1": "1 19419U 88074A   25354.65692935  .00000084  00000+0  12942-3 0  9997", "line2": "2 19419  90.0339  20.2700 0094878 222.9127 254.3830 13.42624735827461"}}, "geometry": {"type": "Point", "coordinates": [20.23288754304536, 48.857479358127314]}}, {"type": "Feature", "properties": {"norad_id": 19420, "name": "OSCAR 31", "group": "nnss", "lat": -67.3426619797049, "lon": 20.70784543339662, "alt_km": 1090.8147947336347, "timestamp": "2025-12-21T03:56:51.105661+00:00", "meta": {"OBJECT_NAME": "OSCAR 31", "OBJECT_ID": "1988-074B", "EPOCH": "2025-12-20T13:01:10.132032", "MEAN_MOTION": 13.42585981, "ECCENTRICITY": 0.0093237, "INCLINATION": 90.0354, "RA_OF_ASC_NODE": 20.6208, "ARG_OF_PERICENTER": 217.3864, "MEAN_ANOMALY": 309.7263, "EPHEMERIS_TYPE": 0, "CLASSIFICATION_TYPE": "U", "NORAD_CAT_ID": 19420, "ELEMENT_SET_NO": 999, "REV_AT_EPOCH": 82755, "BSTAR": 0.00014414, "MEAN_MOTION_DOT": 9.2e-07, "MEAN_MOTION_DDOT": 0}, "tle": {"line1": "1 19420U 88074B   25354.54247838  .00000092  00000+0  14414-3 0  9990", "line2": "2 19420  90.0354  20.6208 0093237 217.3864 309.7263 13.42585981827555"}}, "geometry": {"type": "Point", "coordinates": [20.70784543339662, -67.3426619797049]}}]}